SARSAT 7 (NOAA 15)      
1 25338U 98030A   22254.50430798  .00000106  00000+0  62654-4 0  9995
2 25338  98.6396 282.8949 0011193  51.3621 308.8559 14.26169085265530
METEOSAT-8 (MSG-1)      
1 27509U 02040B   22254.11022321  .00000119  00000+0  00000+0 0  9995
2 27509   8.1937  50.1708 0001825 128.5579 252.5787  1.00277805 73463
GPS BIIR-08             
1 27663U 03005A   22253.69839182  .00000002  00000+0  00000+0 0  9992
2 27663  55.4576 269.6740 0125945  41.1183  84.5550  2.00559532143721
GPS BIIR-11             
1 28190U 04009A   22253.76099618 -.00000078  00000+0  00000+0 0  9997
2 28190  55.9497 330.6771 0089744 125.2039 200.3363  2.00558526135359
GPS BIIR-13             
1 28474U 04045A   22252.97693078 -.00000099  00000+0  00000+0 0  9997
2 28474  55.3793  20.0595 0202112 279.8282  81.5932  2.00421886130830
SARSAT 10 (NOAA 18)     
1 28654U 05018A   22254.46849738  .00000152  00000+0  10562-3 0  9997
2 28654  98.9430 324.8124 0015295  89.3328 270.9596 14.12773836892211
GPS BIIR-14M            
1 28874U 05038A   22253.85308832 -.00000075  00000+0  00000+0 0  9997
2 28874  56.0123 328.1113 0139497 274.9937 143.4515  2.00570788124255
METEOSAT-9 (MSG-2)      
1 28912U 05049B   22253.63424633  .00000110  00000+0  00000+0 0  9995
2 28912   6.2072  65.7287 0001009 182.4336  15.5465  1.00276845 61245
GOES 13                 
1 29155U 06018A   22254.11432162  .00000016  00000+0  00000+0 0  9997
2 29155   0.7994  95.9803 0006209 106.0112 250.8800  1.00274937 59724
GPS BIIR-16M            
1 29601U 06052A   22253.33769189  .00000006  00000+0  00000+0 0  9995
2 29601  55.4672 268.6299 0082594  75.0215 285.9267  2.00555650115812
GPS BIIR-17M            
1 32260U 07047A   22253.14704683  .00000009  00000+0  00000+0 0  9995
2 32260  53.3345 137.0337 0143194  64.3809 297.1720  2.00570001109210
GPS BIIR-18M            
1 32384U 07062A   22253.70259014 -.00000075  00000+0  00000+0 0  9998
2 32384  56.1339 328.8896 0020900 144.9798  24.4612  2.00566798107927
SARSAT 12 (NOAA 19)     
1 33591U 09005A   22254.47948648  .00000125  00000+0  92544-4 0  9995
2 33591  99.1421 290.3988 0013071 308.9903  51.0103 14.12607510700590
GOES 14                 
1 35491U 09033A   22254.43050531 -.00000112  00000+0  00000+0 0  9996
2 35491   0.4111 267.6571 0017465 303.8460 189.4211  1.00273297 48371
GOES 15                 
1 36411U 10008A   22254.40326913  .00000031  00000+0  00000+0 0  9999
2 36411   0.3713 277.0570 0004944 252.5241 198.2876  1.00278929 45874
GPS BIIF-2              
1 37753U 11036A   22253.81196503 -.00000095  00000+0  00000+0 0  9996
2 37753  56.6431  25.3849 0118407  53.4216 344.6958  2.00565800 81694
GSAT0101 (GALILEO-PFM)  
1 37846U 11060A   22253.30671109 -.00000099  00000+0  00000+0 0  9994
2 37846  57.0268  19.0335 0001835  73.7456 286.2656  1.70474876 67662
GSAT0102 (GALILEO-FM2)  
1 37847U 11060B   22253.23119826 -.00000099  00000+0  00000+0 0  9990
2 37847  57.0275  19.0352 0001168 345.4210  15.0147  1.70475253 67670
LUCH 5A                 
1 37951U 11074B   22253.98285683 -.00000065  00000+0  00000+0 0  9991
2 37951   5.2273  96.0669 0004521  43.7531  10.8999  1.00271924 39405
METEOSAT-10 (MSG-3)     
1 38552U 12035B   22253.74520243  .00000043  00000+0  00000+0 0  9990
2 38552   1.6521  45.7009 0000367 101.7405 120.0326  1.00278506 37068
SARSAT 13 (METOP-B)     
1 38771U 12049A   22254.45074074  .00000071  00000+0  52312-4 0  9992
2 38771  98.6882 312.8995 0001568 124.3469  44.9435 14.21506188517946
GPS BIIF-3              
1 38833U 12053A   22253.24479429 -.00000014  00000+0  00000+0 0  9995
2 38833  53.5262 199.8793 0128015  47.2010 313.8323  2.00562782 71842
GSAT0103 (GALILEO-FM3)  
1 38857U 12055A   22253.34612417  .00000002  00000+0  00000+0 0  9996
2 38857  55.1588 139.3650 0002737 264.2271  95.8262  1.70473742 61694
GSAT0104 (GALILEO-FM4)  
1 38858U 12055B   22252.72951992  .00000000  00000+0  00000+0 0  9990
2 38858  55.1586 139.3835 0000350 202.0676 158.0120  1.70473978 61546
GPS BIIF-4              
1 39166U 13023A   22253.60173402 -.00000069  00000+0  00000+0 0  9995
2 39166  55.6366 324.4605 0104150  38.4881 322.3136  2.00565365 68292
INSAT-3D                
1 39216U 13038B   22254.11833285 -.00000176  00000+0  00000+0 0  9995
2 39216   0.0110 210.3958 0001701 352.8473 271.5374  1.00270994 33517
GPS BIIF-5              
1 39533U 14008A   22253.10511305 -.00000013  00000+0  00000+0 0  9999
2 39533  53.6189 205.4001 0060689 209.8519 149.7639  2.00558164 62088
LUCH 5V                 
1 39727U 14023A   22254.40784521 -.00000286  00000+0  00000+0 0  9999
2 39727   1.6973  76.3952 0003652 112.1500  43.3363  1.00267253548728
GPS BIIF-6              
1 39741U 14026A   22253.38838266 -.00000094  00000+0  00000+0 0  9997
2 39741  56.6035  24.9274 0026599 304.4187  55.3270  2.00549918 60946
GPS BIIF-7              
1 40105U 14045A   22253.47028504  .00000010  00000+0  00000+0 0  9997
2 40105  54.7077 143.4102 0022461 111.0420 249.2703  2.00553003 58481
GSAT0201 (GALILEO 5)    
1 40128U 14050A   22252.29322044 -.00000084  00000+0  00000+0 0  9995
2 40128  50.2257 328.9426 1621730 127.1032 248.8522  1.85518904 52771
GSAT0202 (GALILEO 6)    
1 40129U 14050B   22253.63191957 -.00000091  00000+0  00000+0 0  9990
2 40129  50.2483 327.9520 1618802 127.9616 247.8056  1.85519657 54936
GPS BIIF-8              
1 40294U 14068A   22253.34031011  .00000001  00000+0  00000+0 0  9994
2 40294  55.8810  84.5826 0042987  58.7134 301.7753  2.00577408 57617
GLONASS-K 2             
1 40315U 14075A   22253.65800914  .00000019  00000+0  00000+0 0  9995
2 40315  63.6803 238.1861 0019474 212.3792 320.6685  2.13101433 60544
GPS BIIF-9              
1 40534U 15013A   22253.48714312  .00000002  00000+0  00000+0 0  9990
2 40534  53.6542 261.1708 0070261  19.6285 340.6587  2.00576966 54233
GSAT0203 (GALILEO 7)    
1 40544U 15017A   22252.50026547 -.00000097  00000+0  00000+0 0  9998
2 40544  56.8220  19.0771 0003090 218.6388 141.3305  1.70475634 46391
GSAT0204 (GALILEO 8)    
1 40545U 15017B   22252.16656705 -.00000096  00000+0  00000+0 0  9995
2 40545  56.8272  19.0989 0003394 199.7475 160.2311  1.70475599  8770
GPS BIIF-10             
1 40730U 15033A   22253.64348572 -.00000068  00000+0  00000+0 0  9992
2 40730  55.1330 323.2469 0074464   7.6207 352.5572  2.00573754 52402
METEOSAT-11 (MSG-4)     
1 40732U 15034A   22253.74319682 -.00000028  00000+0  00000+0 0  9992
2 40732   0.4677  71.1913 0000926  47.1889 138.4819  1.00272095 26231
GSAT0205 (GALILEO 9)    
1 40889U 15045A   22251.93385105  .00000028  00000+0  00000+0 0  9998
2 40889  55.5732 259.6561 0003836 347.5988  12.4164  1.70473316 43531
GSAT0206 (GALILEO 10)   
1 40890U 15045B   22253.32777460  .00000017  00000+0  00000+0 0  9992
2 40890  55.5714 259.6133 0002952 319.3026  40.6887  1.70473302 43581
GPS BIIF-11             
1 41019U 15062A   22252.69468201  .00000006  00000+0  00000+0 0  9992
2 41019  55.8681  84.4527 0080227 217.3077 142.2014  2.00562574 50220
ELEKTRO-L 2             
1 41105U 15074A   22254.16999566 -.00000134  00000+0  00000+0 0  9991
2 41105   3.1974  87.1324 0002617  99.0038 210.7559  1.00270766 24720
GSAT0209 (GALILEO 12)   
1 41174U 15079A   22252.32883817 -.00000001  00000+0  00000+0 0  9992
2 41174  55.1751 139.0972 0003019 328.8129  31.2484  1.70473923 41306
GSAT0208 (GALILEO 11)   
1 41175U 15079B   22251.96173918 -.00000003  00000+0  00000+0 0  9998
2 41175  55.1726 139.1057 0002336 337.5873  22.4793  1.70473905 41718
GPS BIIF-12             
1 41328U 16007A   22253.28162468  .00000009  00000+0  00000+0 0  9990
2 41328  54.9228 144.1096 0062559 230.0887 129.4296  2.00566797 48243
GSAT0211 (GALILEO 14)   
1 41549U 16030A   22252.66723637  .00000022  00000+0  00000+0 0  9998
2 41549  55.7178 259.5733 0004586 304.5672  55.4082  1.70474837 39201
GSAT0210 (GALILEO 13)   
1 41550U 16030B   22253.54640002  .00000016  00000+0  00000+0 0  9995
2 41550  55.7167 259.5506 0004657 277.0556  82.9030  1.70474862 39210
INSAT-3DR               
1 41752U 16054A   22254.11676324 -.00000098  00000+0  00000+0 0  9996
2 41752   0.0324  92.7243 0011742 169.5822 203.8692  1.00272502 22019
GSAT0207 (GALILEO 15)   
1 41859U 16069A   22254.38232160  .00000002  00000+0  00000+0 0  9999
2 41859  54.8365 139.2009 0002063 336.9930  23.0865  1.70472579 36182
GSAT0212 (GALILEO 16)   
1 41860U 16069B   22253.06247910  .00000000  00000+0  00000+0 0  9992
2 41860  54.8336 139.2349 0002470 344.8525  15.2232  1.70472625 36193
GSAT0213 (GALILEO 17)   
1 41861U 16069C   22252.25459030 -.00000002  00000+0  00000+0 0  9994
2 41861  54.8360 139.2625 0003651 273.1991  86.8373  1.70472766 36041
GSAT0214 (GALILEO 18)   
1 41862U 16069D   22252.98837136  .00000000  00000+0  00000+0 0  9999
2 41862  54.8338 139.2366 0001545 283.9064  76.1590  1.70472685 36187
GOES 16                 
1 41866U 16071A   22254.15879380 -.00000268  00000+0  00000+0 0  9991
2 41866   0.0681 285.7711 0000648 280.4778 125.8741  1.00270788 21315
GSAT-17                 
1 42815U 17040B   22254.12068726 -.00000278  00000+0  00000+0 0  9995
2 42815   0.0202 101.6166 0003890 143.5615 241.9057  1.00272205 19087
GSAT0215 (GALILEO 19)   
1 43055U 17079A   22252.89167012  .00000020  00000+0  00000+0 0  9998
2 43055  55.6934 259.3984 0004148 272.1062  87.8625  1.70474082 29525
GSAT0216 (GALILEO 20)   
1 43056U 17079B   22253.77040788  .00000015  00000+0  00000+0 0  9991
2 43056  55.6936 259.3740 0005800 275.6460  84.2973  1.70474204 29527
GSAT0217 (GALILEO 21)   
1 43057U 17079C   22252.81751079  .00000021  00000+0  00000+0 0  9995
2 43057  55.6918 259.3999 0005284 286.2029  73.7559  1.70474172 29526
GSAT0218 (GALILEO 22)   
1 43058U 17079D   22253.62412618  .00000016  00000+0  00000+0 0  9993
2 43058  55.6920 259.3751 0006265 272.7720  87.1668  1.70474143 29533
GOES 17                 
1 43226U 18022A   22253.71590310  .00000077  00000+0  00000+0 0  9992
2 43226   0.0902 282.5912 0000451 223.3955 324.1425  1.00271233 16634
